      2.10          N: GNSS NAV DATA                        RINEX VERSION / TYPE
fic2rin                                 12/29/2022 00:17:48 PGM / RUN BY / DATE
                                                            END OF HEADER
18 22 12 28  4  0  0.0 -.761104747653D-04 -.148929757415D-10  .000000000000D+00
     .207000000000D+03  .767187500000D+02  .436518182734D-08  .191913225828D+01
     .406987965107D-05  .296467193402D-02  .667385756969D-05  .515370897484D+04
     .273600000000D+06  .521540641785D-07 -.125761018255D+01  .726431608200D-07
     .972888964319D+00  .257875000000D+03 -.311107507503D+01 -.819927010394D-08
     .255010622216D-09  .100000000000D+01  .224200000000D+04  .000000000000D+00
     .240000000000D+01  .000000000000D+00 -.838190317154D-08  .719000000000D+03
     .266400000000D+06  .400000000000D+01
14 22 12 28  4  0  0.0 -.604540109634D-04  .693489710102D-11  .000000000000D+00
     .141000000000D+03  .153125000000D+01  .506663961731D-08  .427434566148D+00
     .745058059692D-07  .249279802665D-02  .616721808910D-05  .515365644073D+04
     .273600000000D+06 -.186264514923D-08  .294645800476D+01  .111758708954D-07
     .950483306005D+00  .254875000000D+03 -.306837543091D+01 -.836749139675D-08
    -.266082511976D-09  .100000000000D+01  .224200000000D+04  .000000000000D+00
     .240000000000D+01  .000000000000D+00 -.791624188423D-08  .397000000000D+03
     .266400000000D+06  .400000000000D+01
2  22 12 28  3 59 44.0 -.630647875369D-03  .216004991671D-11  .000000000000D+00
     .140000000000D+02  .776562500000D+02  .459447709270D-08  .818928424250D+00
     .381842255592D-05  .200947721023D-01  .745803117752D-05  .515369271469D+04
     .273584000000D+06 -.204890966415D-06 -.135658400760D+01 -.277534127235D-06
     .966759622836D+00  .243906250000D+03 -.134795946331D+01 -.853928426689D-08
     .226438003480D-09  .100000000000D+01  .224200000000D+04  .000000000000D+00
     .240000000000D+01  .000000000000D+00 -.176951289177D-07  .140000000000D+02
     .269850000000D+06  .400000000000D+01
1  22 12 28  3 59 44.0  .231867190450D-03 -.500222085975D-11  .000000000000D+00
     .160000000000D+02  .651875000000D+02  .396445084958D-08  .177942484860D+01
     .329501926899D-05  .121504863491D-01  .614300370216D-05  .515365765953D+04
     .273584000000D+06 -.337138772011D-06 -.126080050113D+01 -.130385160446D-06
     .989018941066D+00  .276812500000D+03  .939012024066D+00 -.796711757671D-08
     .239295681911D-09  .100000000000D+01  .224200000000D+04  .000000000000D+00
     .240000000000D+01  .000000000000D+00  .465661287308D-08  .160000000000D+02
     .269970000000D+06  .400000000000D+01
2  22 12 28  5 59 44.0 -.630632974207D-03  .216004991671D-11  .000000000000D+00
     .150000000000D+02  .825937500000D+02  .430910806308D-08  .186901096449D+01
     .405311584473D-05  .200948660495D-01  .634789466858D-05  .515369594955D+04
     .280784000000D+06  .413507223129D-06 -.135664303488D+01 -.126659870148D-06
     .966764083273D+00  .255625000000D+03 -.134787393234D+01 -.790032908042D-08
     .196793911542D-09  .100000000000D+01  .224200000000D+04  .000000000000D+00
     .240000000000D+01  .000000000000D+00 -.176951289177D-07  .150000000000D+02
     .273600000000D+06  .400000000000D+01
1  22 12 28  5 59 44.0  .231831334531D-03 -.500222085975D-11  .000000000000D+00
     .170000000000D+02  .636875000000D+02  .390373403476D-08  .282977128317D+01
     .319257378578D-05  .121520290850D-01  .695511698723D-05  .515365306282D+04
     .280784000000D+06 -.111758708954D-07 -.126085663183D+01 -.193715095520D-06
     .989022030749D+00  .258968750000D+03  .938853613444D+00 -.768853454404D-08
     .253581991279D-09  .100000000000D+01  .224200000000D+04  .000000000000D+00
     .240000000000D+01  .000000000000D+00  .465661287308D-08  .170000000000D+02
     .273600000000D+06  .400000000000D+01
5  22 12 28  6  0  0.0 -.109767541289D-03 -.147792889038D-11  .000000000000D+00
     .610000000000D+02 -.557500000000D+02  .473019703169D-08 -.900258623408D+00
    -.279769301414D-05  .581012142356D-02  .367499887943D-05  .515358447266D+04
     .280800000000D+06 -.242143869400D-07 -.273431313260D+00  .670552253723D-07
     .964147212487D+00  .309093750000D+03  .114034289753D+01 -.844999483335D-08
    -.985755346381D-10  .100000000000D+01  .224200000000D+04  .000000000000D+00
     .240000000000D+01  .000000000000D+00 -.111758708954D-07  .610000000000D+02
     .273600000000D+06  .400000000000D+01
3  22 12 28  6  0  0.0 -.374612864107D-03  .102318153949D-11  .000000000000D+00
     .840000000000D+02 -.444062500000D+02  .439339728835D-08  .169058640234D+01
    -.240653753281D-05  .441473710816D-02  .369176268578D-05  .515374946404D+04
     .280800000000D+06 -.987201929092D-07 -.228861452724D+00 -.558793544769D-08
     .977137155536D+00  .315781250000D+03  .103910315719D+01 -.821927093705D-08
    -.560737642688D-10  .100000000000D+01  .224200000000D+04  .000000000000D+00
     .340000000000D+01  .000000000000D+00  .186264514923D-08  .840000000000D+02
     .273600000000D+06  .400000000000D+01
10 22 12 28  6  0  0.0 -.179773196578D-04 -.159161572810D-11  .000000000000D+00
     .500000000000D+02 -.488750000000D+02  .454161774804D-08  .784294185435D+00
    -.239722430706D-05  .836196180899D-02  .364892184734D-05  .515368328094D+04
     .280800000000D+06 -.633299350739D-07 -.231542065776D+00  .894069671631D-07
     .976901603782D+00  .317906250000D+03 -.247336282636D+01 -.842999400023D-08
    -.182507602174D-09  .100000000000D+01  .224200000000D+04  .000000000000D+00
     .240000000000D+01  .000000000000D+00  .232830643654D-08  .500000000000D+02
     .273600000000D+06  .400000000000D+01
8  22 12 28  6  0  0.0 -.100806821138D-03 -.193267624127D-11  .000000000000D+00
     .400000000000D+02  .148125000000D+02  .440804075545D-08 -.118867564084D+01
     .597909092903D-06  .805012485944D-02  .977143645287D-05  .515363661003D+04
     .280800000000D+06  .335276126862D-07 -.234875812211D+01 -.216066837311D-06
     .960924162577D+00  .188937500000D+03  .180424172214D+00 -.797604652007D-08
    -.245724521127D-09  .100000000000D+01  .224200000000D+04  .000000000000D+00
     .240000000000D+01  .000000000000D+00  .512227416039D-08  .400000000000D+02
     .273600000000D+06  .400000000000D+01
9  22 12 28  6  0  0.0 -.246232841164D-03  .636646291241D-11  .000000000000D+00
     .670000000000D+02 -.811250000000D+02  .453233164695D-08 -.866206729856D+00
    -.432319939137D-05  .262929871678D-02  .990740954876D-05  .515370501328D+04
     .280800000000D+06 -.577419996262D-07  .796549177459D+00  .223517417908D-07
     .955366590922D+00  .186468750000D+03  .195315731606D+01 -.805033532878D-08
    -.964325882329D-11  .100000000000D+01  .224200000000D+04  .000000000000D+00
     .240000000000D+01  .000000000000D+00  .931322574615D-09  .670000000000D+02
     .273600000000D+06  .400000000000D+01
7  22 12 28  6  0  0.0  .267894938588D-03 -.579802872380D-11  .000000000000D+00
     .470000000000D+02  .244687500000D+02  .475555523082D-08  .222332050983D+01
     .108405947685D-05  .165522230091D-01  .917539000511D-05  .515360628128D+04
     .280800000000D+06 -.135973095894D-06  .186846123206D+01 -.400468707085D-06
     .950085867736D+00  .196843750000D+03 -.223306382512D+01 -.796104589523D-08
     .376444251843D-09  .100000000000D+01  .224200000000D+04  .000000000000D+00
     .240000000000D+01  .000000000000D+00 -.111758708954D-07  .470000000000D+02
     .273600000000D+06  .400000000000D+01
6  22 12 28  6  0  0.0  .548586715013D-03  .693489710102D-11  .000000000000D+00
     .970000000000D+02  .639375000000D+02  .398623747136D-08  .311285138820D+01
     .345893204212D-05  .279588508420D-02  .625289976597D-05  .515358513641D+04
     .280800000000D+06 -.186264514923D-07 -.126915349565D+01  .949949026108D-07
     .988287411806D+00  .274281250000D+03 -.895951760399D+00 -.791711549392D-08
     .231438211759D-09  .100000000000D+01  .224200000000D+04  .000000000000D+00
     .340000000000D+01  .000000000000D+00  .372529029846D-08  .970000000000D+02
     .273600000000D+06  .400000000000D+01
4  22 12 28  6  0  0.0 -.601112842560D-04  .738964445191D-11  .000000000000D+00
     .112000000000D+03 -.809062500000D+02  .432053711057D-08 -.159048220681D+01
    -.431947410107D-05  .225271610543D-02  .999309122562D-05  .515372844315D+04
     .280800000000D+06 -.856816768646D-07  .852035787671D+00 -.484287738800D-07
     .962139334017D+00  .188093750000D+03 -.309919776603D+01 -.785782731005D-08
    -.714315468392D-12  .100000000000D+01  .224200000000D+04  .000000000000D+00
     .240000000000D+01  .000000000000D+00 -.465661287308D-08  .880000000000D+03
     .273600000000D+06  .400000000000D+01
26 22 12 28  6  0  0.0  .239303801209D-03  .682121026330D-12  .000000000000D+00
     .130000000000D+02  .147500000000D+02  .544129808048D-08  .570747280384D+00
     .854954123497D-06  .769788527396D-02  .560283660889D-05  .515360657310D+04
     .280800000000D+06  .167638063431D-07  .284932239040D+01  .145286321640D-06
     .935460506622D+00  .256031250000D+03  .422204492112D+00 -.861607317975D-08
    -.177150236161D-09  .100000000000D+01  .224200000000D+04  .000000000000D+00
     .240000000000D+01  .000000000000D+00  .698491930962D-08  .130000000000D+02
     .273600000000D+06  .400000000000D+01
25 22 12 28  6  0  0.0  .406113453209D-03  .352429196937D-11  .000000000000D+00
     .120000000000D+02  .862500000000D+01  .498627912711D-08  .135805026845D+01
     .355765223503D-06  .110291549936D-01  .654719769955D-05  .515356384850D+04
     .280800000000D+06 -.212341547012D-06  .290215923758D+01  .149011611938D-07
     .954700281476D+00  .251156250000D+03  .101146513684D+01 -.842999400023D-08
    -.260367988229D-09  .100000000000D+01  .224200000000D+04  .000000000000D+00
     .240000000000D+01  .000000000000D+00  .558793544769D-08  .120000000000D+02
     .273600000000D+06  .400000000000D+01
